{
    "links": {
        "self": "http://www.neowsapp.com/rest/v1/neo/3720887?api_key=iIulBulltgU6a56xZRHN4H3l9WmuAYTsLGpBGhQ2"
    },
    "id": "3720887",
    "neo_reference_id": "3720887",
    "name": "(2015 KT157)",
    "designation": "2015 KT157",
    "nasa_jpl_url": "http://ssd.jpl.nasa.gov/sbdb.cgi?sstr=3720887",
    "absolute_magnitude_h": 22.8,
    "estimated_diameter": {
        "kilometers": {
            "estimated_diameter_min": 0.0732073989,
            "estimated_diameter_max": 0.1636967205
        },
        "meters": {
            "estimated_diameter_min": 73.2073989347,
            "estimated_diameter_max": 163.696720474
        },
        "miles": {
            "estimated_diameter_min": 0.0454889547,
            "estimated_diameter_max": 0.1017163949
        },
        "feet": {
            "estimated_diameter_min": 240.181762721,
            "estimated_diameter_max": 537.0627483999
        }
    },
    "is_potentially_hazardous_asteroid": false,
    "close_approach_data": [
        {
            "close_approach_date": "2015-04-06",
            "close_approach_date_full": "2015-Apr-06 03:00",
            "epoch_date_close_approach": 1428289200000,
            "relative_velocity": {
                "kilometers_per_second": "15.7201583812",
                "kilometers_per_hour": "56592.5701721706",
                "miles_per_hour": "35164.4222828134"
            },
            "miss_distance": {
                "astronomical": "0.2705213182",
                "lunar": "105.2327927798",
                "kilometers": "40469412.992312234",
                "miles": "25146527.1734634692"
            },
            "orbiting_body": "Earth"
        }
    ],
    "orbital_data": {
        "orbit_id": "4",
        "orbit_determination_date": "2017-04-06 08:33:18",
        "first_observation_date": "2015-05-20",
        "last_observation_date": "2015-06-12",
        "data_arc_in_days": 23,
        "observations_used": 17,
        "orbit_uncertainty": "8",
        "minimum_orbit_intersection": ".0706186",
        "jupiter_tisserand_invariant": "3.233",
        "epoch_osculation": "2457178.5",
        "eccentricity": ".7617266818995455",
        "semi_major_axis": "2.164931005558701",
        "inclination": "6.967432295137383",
        "ascending_node_longitude": "249.4793085610985",
        "orbital_period": "1163.494989473593",
        "perihelion_distance": ".5158452941530252",
        "perihelion_argument": "227.2590403715144",
        "aphelion_distance": "3.814016716964377",
        "perihelion_time": "2457075.856751948817",
        "mean_anomaly": "31.75911338917248",
        "mean_motion": ".3094125915942939",
        "equinox": "J2000",
        "orbit_class": {
            "orbit_class_type": "APO",
            "orbit_class_description": "Near-Earth asteroid orbits which cross the Earth’s orbit similar to that of 1862 Apollo",
            "orbit_class_range": "a (semi-major axis) > 1.0 AU; q (perihelion) < 1.017 AU"
        }
    },
    "is_sentry_object": false
}